GLOBAL-2                
1 43812U 18099BG  26068.69955396  .00003970  00000+0  26145-3 0  9998
2 43812  97.3697 109.3280 0007454 127.1924 232.9986 15.08046936396919
STARLINK-2565           
1 48280U 21036E   26068.30040767  .00002784  00000+0  20571-3 0  9991
2 48280  53.0543  98.3658 0001513  91.9906 268.1256 15.06407119268041
